LEMUR-2-AMANDA-SVANTE   
1 48269U 21034B   26068.77637527  .00030872  00000+0  11134-2 0  9996
2 48269  97.5829 144.8625 0002703 205.4721 154.6385 15.28469003265849
STARLINK-31699          
1 59551U 24074T   26068.15266485 -.00002975  00000+0 -98612-4 0  9995
2 59551  43.0013 346.4327 0000668 316.0050  44.0749 15.27587018105932
